BEIDOU G3               
1 36590U 10024A   17300.30535277 -.00000359  00000-0  00000-0 0  9991
2 36590   1.4427  30.3909 0006396 310.9906 274.8955  1.00278233 27149
BADR-5                  
1 36592U 10025A   17300.35465948  .00000142  00000-0  00000+0 0  9994
2 36592   0.0167 242.6936 0004966 316.8113 350.1295  1.00275718 27264
COMS 1                  
1 36744U 10032A   17300.57759914 -.00000348  00000-0  00000-0 0  9994
2 36744   0.0408  97.5897 0000894 168.8626 105.8222  1.00269627 19453
ARABSAT-5A              
1 36745U 10032B   17300.52549146  .00000150  00000-0  00000+0 0  9993
2 36745   0.0566  17.0156 0003135 197.8611  40.8690  1.00271783 26991
ECHOSTAR 15             
1 36792U 10034A   17300.18934894 -.00000286  00000-0  00000+0 0  9998
2 36792   0.0095  54.5812 0001952 167.3513 180.3708  1.00272005 26766
NILESAT 201             
1 36830U 10037A   17300.36924263 -.00000061  00000-0  00000-0 0  9995
2 36830   0.0570 144.8964 0003936  51.8585 325.1129  1.00272298 26735
RASCOM-QAF 1R           
1 36831U 10037B   17299.89320031  .00000015  00000-0  00000+0 0  9991
2 36831   0.0071 264.3701 0005407 331.4323 124.1464  1.00270622 26650
CHINASAT 6A (ZX 6A)     
1 37150U 10042A   17300.48729718 -.00000357  00000-0  00000-0 0  9996
2 37150   0.0168 189.8640 0000979  40.9878 105.6471  1.00273468 26261
QZS-1 (MICHIBIKI)       
1 37158U 10045A   17299.50257718 -.00000135  00000-0  00000-0 0  9997
2 37158  40.9370 157.4217 0748250 270.0694 285.7667  1.00291011 26105
XM-5                    
1 37185U 10053A   17300.56295976 -.00000208  00000-0  00000-0 0  9994
2 37185   0.0172 254.7167 0001613 120.0235 138.8570  1.00271812 25867
BSAT-3B                 
1 37207U 10056B   17300.51785324 -.00000354  00000-0  00000-0 0  9990
2 37207   0.0458 318.8958 0003431 311.7403  61.7479  1.00270374 20617
BEIDOU G4               
1 37210U 10057A   17300.45188375 -.00000114  00000-0  00000-0 0  9995
2 37210   0.9164  54.4303 0007122 177.1834 127.1532  1.00272529 25654
SKYTERRA 1              
1 37218U 10061A   17300.10463189 -.00000123  00000-0  00000-0 0  9999
2 37218   3.0645 332.3226 0003221 194.2730 165.4245  1.00272339 25579
ZHONGXING-20A           
1 37234U 10064A   17299.21080914 -.00000342  00000-0  00000-0 0  9993
2 37234   0.0111 292.0631 0002917  14.0902 294.3740  1.00271020 25382
HYLAS 1                 
1 37237U 10065A   17300.45257722 -.00000237  00000-0  00000-0 0  9992
2 37237   0.0734  72.5403 0001512 133.8505 319.0561  1.00271030 25357
INTELSAT 17 (IS-17)     
1 37238U 10065B   17300.60604771 -.00000005  00000-0  00000-0 0  9993
2 37238   0.0209 226.3768 0003003 346.8480 107.1238  1.00271022 21795
EUTELSAT KA-SAT 9A      
1 37258U 10069A   17298.87913125  .00000057  00000-0  00000-0 0  9996
2 37258   0.0355 270.0163 0002783 332.8464 117.1417  1.00270755 12405
HISPASAT 1E             
1 37264U 10070A   17300.38382875 -.00000219  00000-0  00000-0 0  9998
2 37264   0.0514  99.7768 0004756  92.3883 311.9966  1.00273138 21558
KOREASAT 6              
1 37265U 10070B   17300.57236758 -.00000366  00000-0  00000-0 0  9991
2 37265   0.0115 259.0720 0002048 326.9563 132.1490  1.00267377 25140
INTELSAT NEW DAWN       
1 37392U 11016A   17300.52549146  .00000152  00000-0  00000-0 0  9998
2 37392   0.0145 223.4435 0001291   0.5679  34.0633  1.00272642 21678
YAHSAT 1A               
1 37393U 11016B   17300.51576856  .00000097  00000-0  00000-0 0  9994
2 37393   0.0107 242.7534 0002223 335.0974  56.3976  1.00271152 10772
TELSTAR 14R             
1 37602U 11021A   17300.55323704 -.00000283  00000-0  00000-0 0  9997
2 37602   0.0223 357.2862 0001832 287.7461 247.2602  1.00271819 24221
GSAT-8                  
1 37605U 11022A   17299.17688234  .00000080  00000-0  00000-0 0  9992
2 37605   0.0603  90.3798 0007169 158.2634 264.8641  1.00272589 21570
ST-2                    
1 37606U 11022B   17300.40466275 -.00000216  00000-0  00000-0 0  9993
2 37606   0.0168 245.9748 0001497 308.4726  75.2056  1.00274021 23646
CHINASAT 10 (ZX 10)     
1 37677U 11026A   17300.30535277 -.00000356  00000-0  00000+0 0  9997
2 37677   0.0516 268.9101 0004694 280.8763  66.4864  1.00269605 23332
TIANLIAN 1-02           
1 37737U 11032A   17300.16438402  .00000028  00000-0  00000-0 0  9993
2 37737   2.8538  76.7478 0008384 169.7984  25.1926  1.00275156 23086
GSAT-12                 
1 37746U 11034A   17300.60118838 -.00000168  00000-0  00000-0 0  9998
2 37746   0.1118  94.4459 0004780  11.0215 230.1198  1.00271084 11856
SES-3                   
1 37748U 11035A   17300.52991719 -.00000105  00000-0  00000-0 0  9990
2 37748   0.0451  69.9535 0002261 125.1041 288.8183  1.00272161 22982
KAZSAT-2                
1 37749U 11035B   17300.11924350 -.00000202  00000-0  00000-0 0  9991
2 37749   0.0161 307.8778 0000692 301.1211 276.1460  1.00272399 21761
ASTRA 1N                
1 37775U 11041A   17300.26091000  .00000116  00000-0  00000+0 0  9992
2 37775   0.0514  24.0714 0001119 120.2529   4.6647  1.00273403 22766
BSAT-3C (JCSAT-110R)    
1 37776U 11041B   17300.57271479 -.00000355  00000-0  00000-0 0  9994
2 37776   0.0379  71.0323 0000066   6.8122 274.4564  1.00273280 18866
PAKSAT-1R               
1 37779U 11042A   17300.52514424  .00000150  00000-0  00000-0 0  9995
2 37779   0.0385  44.4686 0003193 168.0739  50.6017  1.00270348 22843
CHINASAT 1A (ZX 1A)     
1 37804U 11047A   17300.39819242 -.00000340  00000-0  00000-0 0  9992
2 37804   0.0755 109.4403 0002743 162.2166  37.7271  1.00273472 22447
COSMOS 2473             
1 37806U 11048A   17299.93879962 -.00000111  00000-0  00000+0 0  9992
2 37806   0.0506  86.9104 0003487 165.9490 107.1362  1.00271824 22437
SES-2                   
1 37809U 11049A   17300.56295976 -.00000199  00000-0  00000-0 0  9992
2 37809   0.0128 277.7588 0002137 279.7244 314.3312  1.00272691 22393
ARABSAT-5C              
1 37810U 11049B   17300.53032140  .00000120  00000-0  00000+0 0  9995
2 37810   0.0653   2.9873 0002940 210.0829  33.9424  1.00269958 22279
EUTELSAT 7 WEST A       
1 37816U 11051A   17299.92169914 -.00000064  00000-0  00000+0 0  9992
2 37816   0.0771  45.5877 0006163 163.0525 151.3595  1.00272755 22334
QUETZSAT 1              
1 37826U 11054A   17300.55809968 -.00000245  00000-0  00000-0 0  9990
2 37826   0.0357  44.0605 0002440 151.3190 324.6642  1.00271015 18285
INTELSAT 18 (IS-18)     
1 37834U 11056A   17300.52250848  .00000049  00000-0  00000+0 0  9995
2 37834   0.0107 225.8701 0002045 348.1450 190.1549  1.00271290 22225
EUTELSAT 16A            
1 37836U 11057A   17300.53518148  .00000100  00000-0  00000+0 0  9997
2 37836   0.0693 359.3485 0004541 224.9541  20.4666  1.00270130 22153
VIASAT-1                
1 37843U 11059A   17300.14771472 -.00000028  00000-0  00000+0 0  9995
2 37843   0.0185 249.4489 0002525 311.8760 132.4782  1.00272426 22635
ASIASAT 7               
1 37933U 11069A   17300.31021486 -.00000337  00000-0  00000-0 0  9992
2 37933   0.0384  77.1179 0001354  83.5120  92.3869  1.00268124 13225
LUCH 5A                 
1 37951U 11074B   17300.33916169 -.00000048  00000-0  00000-0 0  9990
2 37951   1.6165 168.7283 0002890  72.3696  83.8834  1.00270035 21558
NIGCOMSAT 1R            
1 38014U 11077A   17300.34979736  .00000141  00000-0  00000-0 0  9997
2 38014   0.0647  73.9539 0001259 109.1008  21.2752  1.00271233 21323
FENGYUN 2F              
1 38049U 12002A   17300.25790753 -.00000359  00000-0  00000+0 0  9995
2 38049   1.9785  78.2797 0003275 244.1442 277.9838  1.00282224 21259
SES-4                   
1 38087U 12007A   17300.37896664 -.00000171  00000-0  00000+0 0  9995
2 38087   0.0239 324.1544 0002539 252.3043 293.9245  1.00272971 20851
BEIDOU G5               
1 38091U 12008A   17300.41924315  .00000054  00000-0  00000-0 0  9991
2 38091   1.8799  58.0238 0004947 222.4689 325.0205  1.00275861 20841
INTELSAT 22 (IS-22)     
1 38098U 12011A   17299.70170898 -.00000062  00000-0  00000+0 0  9999
2 38098   0.0193 292.9999 0002484 286.1934 140.7887  1.00269965 20413
APSTAR 7                
1 38107U 12013A   17300.40952190 -.00000106  00000-0  00000+0 0  9994
2 38107   0.0172  50.7764 0002431 167.8217  41.3211  1.00272351 20535
YAHSAT 1B               
1 38245U 12016A   17299.76960410  .00000122  00000-0  00000-0 0  9998
2 38245   0.0182 246.3871 0001299 331.0798 142.5240  1.00270419 13992
JCSAT-13                
1 38331U 12023A   17299.55797599 -.00000361  00000-0  00000-0 0  9991
2 38331   0.0544  81.3113 0002480 153.7698 124.9290  1.00270494 19883
VINASAT-2               
1 38332U 12023B   17300.56716053 -.00000332  00000-0  00000-0 0  9990
2 38332   0.0112 252.9720 0002005 314.4005 164.7821  1.00270302 15028
NIMIQ 6                 
1 38342U 12026A   17300.15374540 -.00000178  00000-0  00000+0 0  9997
2 38342   0.0104 252.6625 0002611 317.0475 150.2751  1.00270859 19960
CHINASAT 2A (ZX 2A)     
1 38352U 12028A   17300.57757667 -.00000297  00000-0  00000-0 0  9994
2 38352   0.0114 307.8319 0004014  19.8199  14.6948  1.00274251 19741
INTELSAT 19 (IS-19)     
1 38356U 12030A   17300.43886699 -.00000060  00000-0  00000-0 0  9992
2 38356   0.0075 316.9135 0002896 255.6484 147.4203  1.00270803 18838
ECHOSTAR 17             
1 38551U 12035A   17300.19816253 -.00000079  00000-0  00000-0 0  9996
2 38551   0.0181 238.1608 0002120 335.4897 146.3360  1.00270041 19442
METEOSAT-10 (MSG-3)     
1 38552U 12035B   17299.90227856 -.00000011  00000-0  00000+0 0  9993
2 38552   0.8390   8.7041 0001276 219.4657 131.8525  1.00268845 19587
SES-5                   
1 38652U 12036A   17300.36438328  .00000030  00000-0  00000-0 0  9997
2 38652   0.0492 267.6890 0001633 311.0990 313.3121  1.00272463 12872
TIANLIAN 1-03           
1 38730U 12040A   17299.87228116  .00000068  00000-0  00000-0 0  9995
2 38730   0.1608 270.4850 0003747 279.0366 170.5051  1.00271804 17086
